start=new Date('2022-09-18T00:00:00.000Z').valueOf();
sats=[{"EPOCH":"2022-09-17T20:07:10.680384","MEAN_ANOMALY":"277.3363","INCLINATION":"53.0527","RCS_SIZE":"LARGE","COUNTRY_CODE":"US","SITE":"AFETR","DECAY_DATE":null,"PERIAPSIS":"546.231","TLE_LINE2":"2 48023  53.0527 267.7267 0001454  82.7791 277.3363 15.06392189 83383","GP_ID":"212869209","MEAN_MOTION":"15.06392189","REV_AT_EPOCH":"8338","LAUNCH_DATE":"2021-03-24","MEAN_MOTION_DDOT":"0.0000000000000","SEMIMAJOR_AXIS":"6925.372","CLASSIFICATION_TYPE":"U","APOAPSIS":"548.244","PERIOD":"95.593","EPHEMERIS_TYPE":"0","FILE":"3576621","MEAN_ELEMENT_THEORY":"SGP4","TIME_SYSTEM":"UTC","OBJECT_TYPE":"PAYLOAD","BSTAR":"-0.00002438200000","ELEMENT_SET_NO":"999","RA_OF_ASC_NODE":"267.7267","CENTER_NAME":"EARTH","NORAD_CAT_ID":"48023","ARG_OF_PERICENTER":"82.7791","OBJECT_NAME":"STARLINK-2292","MEAN_MOTION_DOT":"-0.00000645","TLE_LINE1":"1 48023U 21024AY  22260.83831806 -.00000645  00000-0 -24382-4 0  9995","REF_FRAME":"TEME","OBJECT_ID":"2021-024AY","ECCENTRICITY":"0.00014540"},{"MEAN_MOTION_DOT":"0.00001059","ARG_OF_PERICENTER":"84.4180","OBJECT_NAME":"STARLINK-2278","ECCENTRICITY":"0.00012000","OBJECT_ID":"2021-024BB","REF_FRAME":"TEME","TLE_LINE1":"1 48026U 21024BB  22260.35315120  .00001059  00000-0  90013-4 0  9993","TIME_SYSTEM":"UTC","FILE":"3576375","MEAN_ELEMENT_THEORY":"SGP4","EPHEMERIS_TYPE":"0","PERIOD":"95.593","NORAD_CAT_ID":"48026","CENTER_NAME":"EARTH","RA_OF_ASC_NODE":"274.8867","BSTAR":"0.00009001300000","ELEMENT_SET_NO":"999","OBJECT_TYPE":"PAYLOAD","LAUNCH_DATE":"2021-03-24","REV_AT_EPOCH":"8318","MEAN_MOTION_DDOT":"0.0000000000000","MEAN_MOTION":"15.06390303","GP_ID":"212812983","APOAPSIS":"548.074","CLASSIFICATION_TYPE":"U","SEMIMAJOR_AXIS":"6925.378","RCS_SIZE":"LARGE","INCLINATION":"53.0548","MEAN_ANOMALY":"275.6946","EPOCH":"2022-09-17T08:28:32.263680","TLE_LINE2":"2 48026  53.0548 274.8867 0001200  84.4180 275.6946 15.06390303 83186","PERIAPSIS":"546.412","SITE":"AFETR","DECAY_DATE":null,"COUNTRY_CODE":"US"},{"LAUNCH_DATE":"2021-03-24","MEAN_MOTION_DDOT":"0.0000000000000","REV_AT_EPOCH":"8359","GP_ID":"212869681","MEAN_MOTION":"15.06396286","APOAPSIS":"548.163","SEMIMAJOR_AXIS":"6925.360","CLASSIFICATION_TYPE":"U","RCS_SIZE":"LARGE","EPOCH":"2022-09-17T18:39:35.679456","MEAN_ANOMALY":"279.0692","INCLINATION":"53.0536","TLE_LINE2":"2 48027  53.0536 247.9820 0001354  81.0450 279.0692 15.06396286 83594","COUNTRY_CODE":"US","DECAY_DATE":null,"SITE":"AFETR","PERIAPSIS":"546.287","ARG_OF_PERICENTER":"81.0450","OBJECT_NAME":"STARLINK-2300","MEAN_MOTION_DOT":"-0.00000063","ECCENTRICITY":"0.00013540","TLE_LINE1":"1 48027U 21024BC  22260.77749629 -.00000063  00000-0  14642-4 0  9994","REF_FRAME":"TEME","OBJECT_ID":"2021-024BC","MEAN_ELEMENT_THEORY":"SGP4","FILE":"3576621","TIME_SYSTEM":"UTC","PERIOD":"95.592","EPHEMERIS_TYPE":"0","RA_OF_ASC_NODE":"247.9820","CENTER_NAME":"EARTH","NORAD_CAT_ID":"48027","OBJECT_TYPE":"PAYLOAD","ELEMENT_SET_NO":"999","BSTAR":"0.00001464200000"},{"LAUNCH_DATE":"2021-03-24","MEAN_MOTION_DDOT":"0.0000000000000","REV_AT_EPOCH":"8428","GP_ID":"212868459","MEAN_MOTION":"15.06388834","APOAPSIS":"548.244","CLASSIFICATION_TYPE":"U","SEMIMAJOR_AXIS":"6925.383","RCS_SIZE":"LARGE","EPOCH":"2022-09-17T19:51:59.169888","MEAN_ANOMALY":"285.8971","INCLINATION":"53.0543","TLE_LINE2":"2 48028  53.0543 203.1632 0001439  74.2177 285.8971 15.06388834 84284","COUNTRY_CODE":"US","PERIAPSIS":"546.251","SITE":"AFETR","DECAY_DATE":null,"OBJECT_NAME":"STARLINK-2264","ARG_OF_PERICENTER":"74.2177","MEAN_MOTION_DOT":"-0.00000788","ECCENTRICITY":"0.00014390","REF_FRAME":"TEME","TLE_LINE1":"1 48028U 21024BD  22260.82776817 -.00000788  00000-0 -34039-4 0  9997","OBJECT_ID":"2021-024BD","TIME_SYSTEM":"UTC","MEAN_ELEMENT_THEORY":"SGP4","FILE":"3576621","PERIOD":"95.593","EPHEMERIS_TYPE":"0","RA_OF_ASC_NODE":"203.1632","NORAD_CAT_ID":"48028","CENTER_NAME":"EARTH","OBJECT_TYPE":"PAYLOAD","ELEMENT_SET_NO":"999","BSTAR":"-0.00003403900000"},{"NORAD_CAT_ID":"48029","CENTER_NAME":"EARTH","RA_OF_ASC_NODE":"269.3010","ELEMENT_SET_NO":"999","BSTAR":"0.00022088000000","OBJECT_TYPE":"PAYLOAD","TIME_SYSTEM":"UTC","MEAN_ELEMENT_THEORY":"SGP4","FILE":"3576375","EPHEMERIS_TYPE":"0","PERIOD":"95.592","ECCENTRICITY":"0.00017810","OBJECT_ID":"2021-024BE","REF_FRAME":"TEME","TLE_LINE1":"1 48029U 21024BE  22260.48445842  .00003010  00000-0  22088-3 0  9990","MEAN_MOTION_DOT":"0.00003010","OBJECT_NAME":"STARLINK-2299","ARG_OF_PERICENTER":"57.5502","TLE_LINE2":"2 48029  53.0522 269.3010 0001781  57.5502 302.5659 15.06399626 83338","PERIAPSIS":"545.981","DECAY_DATE":null,"SITE":"AFETR","COUNTRY_CODE":"US","RCS_SIZE":"LARGE","INCLINATION":"53.0522","MEAN_ANOMALY":"302.5659","EPOCH":"2022-09-17T11:37:37.207488","APOAPSIS":"548.448","CLASSIFICATION_TYPE":"U","SEMIMAJOR_AXIS":"6925.350","LAUNCH_DATE":"2021-03-24","REV_AT_EPOCH":"8333","MEAN_MOTION_DDOT":"0.0000000000000","MEAN_MOTION":"15.06399626","GP_ID":"212811737"},{"MEAN_ELEMENT_THEORY":"SGP4","FILE":"3576621","TIME_SYSTEM":"UTC","PERIOD":"95.592","EPHEMERIS_TYPE":"0","RA_OF_ASC_NODE":"272.9925","CENTER_NAME":"EARTH","NORAD_CAT_ID":"48030","OBJECT_TYPE":"PAYLOAD","ELEMENT_SET_NO":"999","BSTAR":"0.00001724100000","OBJECT_NAME":"STARLINK-2268","ARG_OF_PERICENTER":"58.5313","MEAN_MOTION_DOT":"-0.00000025","ECCENTRICITY":"0.00016480","TLE_LINE1":"1 48030U 21024BF  22260.77703521 -.00000025  00000-0  17241-4 0  9995","REF_FRAME":"TEME","OBJECT_ID":"2021-024BF","RCS_SIZE":"LARGE","EPOCH":"2022-09-17T18:38:55.842144","MEAN_ANOMALY":"301.5837","INCLINATION":"53.0551","TLE_LINE2":"2 48030  53.0551 272.9925 0001648  58.5313 301.5837 15.06400071 83244","COUNTRY_CODE":"US","SITE":"AFETR","DECAY_DATE":null,"PERIAPSIS":"546.072","LAUNCH_DATE":"2021-03-24","MEAN_MOTION_DDOT":"0.0000000000000","REV_AT_EPOCH":"8324","GP_ID":"212869458","MEAN_MOTION":"15.06400071","APOAPSIS":"548.355","SEMIMAJOR_AXIS":"6925.348","CLASSIFICATION_TYPE":"U"},{"RCS_SIZE":"LARGE","MEAN_ANOMALY":"297.4352","INCLINATION":"53.0540","EPOCH":"2022-09-17T21:09:32.269536","TLE_LINE2":"2 48031  53.0540 157.5259 0001485  62.6788 297.4352 15.06395550 84872","PERIAPSIS":"546.199","SITE":"AFETR","DECAY_DATE":null,"COUNTRY_CODE":"US","LAUNCH_DATE":"2021-03-24","MEAN_MOTION_DDOT":"0.0000000000000","REV_AT_EPOCH":"8487","MEAN_MOTION":"15.06395550","GP_ID":"212870182","APOAPSIS":"548.256","CLASSIFICATION_TYPE":"U","SEMIMAJOR_AXIS":"6925.362","TIME_SYSTEM":"UTC","FILE":"3576621","MEAN_ELEMENT_THEORY":"SGP4","EPHEMERIS_TYPE":"0","PERIOD":"95.592","NORAD_CAT_ID":"48031","CENTER_NAME":"EARTH","RA_OF_ASC_NODE":"157.5259","BSTAR":"0.00003774200000","ELEMENT_SET_NO":"999","OBJECT_TYPE":"PAYLOAD","MEAN_MOTION_DOT":"0.00000281","OBJECT_NAME":"STARLINK-2267","ARG_OF_PERICENTER":"62.6788","ECCENTRICITY":"0.00014850","OBJECT_ID":"2021-024BG","REF_FRAME":"TEME","TLE_LINE1":"1 48031U 21024BG  22260.88162349  .00000281  00000-0  37742-4 0  9996"},{"CLASSIFICATION_TYPE":"U","SEMIMAJOR_AXIS":"6925.331","APOAPSIS":"548.213","GP_ID":"212868960","MEAN_MOTION":"15.06405591","MEAN_MOTION_DDOT":"0.0000000000000","LAUNCH_DATE":"2021-03-24","REV_AT_EPOCH":"8339","COUNTRY_CODE":"US","PERIAPSIS":"546.180","DECAY_DATE":null,"SITE":"AFETR","TLE_LINE2":"2 48033  53.0530 267.5787 0001468  77.2916 282.8237 15.06405591 83390","EPOCH":"2022-09-17T20:54:56.118240","MEAN_ANOMALY":"282.8237","INCLINATION":"53.0530","RCS_SIZE":"LARGE","REF_FRAME":"TEME","TLE_LINE1":"1 48033U 21024BJ  22260.87148285  .00001898  00000-0  14628-3 0  9992","OBJECT_ID":"2021-024BJ","ECCENTRICITY":"0.00014680","ARG_OF_PERICENTER":"77.2916","OBJECT_NAME":"STARLINK-2286","MEAN_MOTION_DOT":"0.00001898","OBJECT_TYPE":"PAYLOAD","BSTAR":"0.00014628000000","ELEMENT_SET_NO":"999","RA_OF_ASC_NODE":"267.5787","NORAD_CAT_ID":"48033","CENTER_NAME":"EARTH","PERIOD":"95.592","EPHEMERIS_TYPE":"0","TIME_SYSTEM":"UTC","FILE":"3576621","MEAN_ELEMENT_THEORY":"SGP4"},{"TIME_SYSTEM":"UTC","MEAN_ELEMENT_THEORY":"SGP4","FILE":"3576621","PERIOD":"95.592","EPHEMERIS_TYPE":"0","RA_OF_ASC_NODE":"268.0843","NORAD_CAT_ID":"48034","CENTER_NAME":"EARTH","OBJECT_TYPE":"PAYLOAD","BSTAR":"0.00013348000000","ELEMENT_SET_NO":"999","OBJECT_NAME":"STARLINK-2288","ARG_OF_PERICENTER":"73.2229","MEAN_MOTION_DOT":"0.00001707","ECCENTRICITY":"0.00013450","REF_FRAME":"TEME","TLE_LINE1":"1 48034U 21024BK  22260.75722364  .00001707  00000-0  13348-3 0  9993","OBJECT_ID":"2021-024BK","RCS_SIZE":"LARGE","EPOCH":"2022-09-17T18:10:24.122496","INCLINATION":"53.0540","MEAN_ANOMALY":"286.8907","TLE_LINE2":"2 48034  53.0540 268.0843 0001345  73.2229 286.8907 15.06402466 83372","COUNTRY_CODE":"US","PERIAPSIS":"546.275","SITE":"AFETR","DECAY_DATE":null,"MEAN_MOTION_DDOT":"0.0000000000000","LAUNCH_DATE":"2021-03-24","REV_AT_EPOCH":"8337","GP_ID":"212869210","MEAN_MOTION":"15.06402466","APOAPSIS":"548.137","CLASSIFICATION_TYPE":"U","SEMIMAJOR_AXIS":"6925.341"},{"OBJECT_NAME":"STARLINK-2295","ARG_OF_PERICENTER":"63.7348","MEAN_MOTION_DOT":"-0.00000398","REF_FRAME":"TEME","TLE_LINE1":"1 48036U 21024BM  22260.76460076 -.00000398  00000-0 -78089-5 0  9997","OBJECT_ID":"2021-024BM","ECCENTRICITY":"0.00014680","PERIOD":"95.593","EPHEMERIS_TYPE":"0","TIME_SYSTEM":"UTC","MEAN_ELEMENT_THEORY":"SGP4","FILE":"3576621","OBJECT_TYPE":"PAYLOAD","BSTAR":"-0.00000780890000","ELEMENT_SET_NO":"999","RA_OF_ASC_NODE":"268.0594","NORAD_CAT_ID":"48036","CENTER_NAME":"EARTH","GP_ID":"212869959","MEAN_MOTION":"15.06389833","LAUNCH_DATE":"2021-03-24","REV_AT_EPOCH":"8337","MEAN_MOTION_DDOT":"0.0000000000000","CLASSIFICATION_TYPE":"U","SEMIMAJOR_AXIS":"6925.380","APOAPSIS":"548.261","EPOCH":"2022-09-17T18:21:01.505664","MEAN_ANOMALY":"296.3791","INCLINATION":"53.0538","RCS_SIZE":"LARGE","COUNTRY_CODE":"US","PERIAPSIS":"546.228","DECAY_DATE":null,"SITE":"AFETR","TLE_LINE2":"2 48036  53.0538 268.0594 0001468  63.7348 296.3791 15.06389833 83375"}];
